ZIYUAN3(ZY3)
1 38046U 12001A   18094.43927289  .00000650  00000-0  32247-4 0  9994
2 38046  97.4999 166.1123 0003549 107.4139 307.8461 15.21259314346236
